{
  "type": "FeatureCollection",
  "features": [
    {
      "type": "Feature",
      "properties": {
        "norad_id": 29770,
        "name": "FENGYUN 1C DEB",
        "group": "fengyun-1c-debris",
        "lat": 59.30085355659694,
        "lon": -94.74365260843445,
        "alt_km": 847.966963573539,
        "timestamp": "2025-12-20T11:30:28.648383+00:00",
        "meta_object_name": "FENGYUN 1C DEB",
        "meta_object_id": "1999-025BL",
        "meta_epoch": "2025-12-20T04:26:25.957824",
        "meta_mean_motion": 14.20157335,
        "meta_eccentricity": 0.0063469,
        "meta_inclination": 98.8463,
        "meta_ra_of_asc_node": 69.7556,
        "meta_arg_of_pericenter": 249.8369,
        "meta_mean_anomaly": 165.5067,
        "meta_ephemeris_type": 0,
        "meta_classification_type": "U",
        "meta_norad_cat_id": 29770,
        "meta_element_set_no": 999,
        "meta_rev_at_epoch": 97192,
        "meta_bstar": 0.00097896,
        "meta_mean_motion_dot": 2.086e-05,
        "meta_mean_motion_ddot": 0,
        "tle_line1": "1 29770U 99025BL  25354.18502266  .00002086  00000+0  97896-3 0  9996",
        "tle_line2": "2 29770  98.8463  69.7556 0063469 249.8369 165.5067 14.20157335971921"
      },
      "geometry": {
        "type": "Point",
        "coordinates": [
          -94.74365260843445,
          59.30085355659694
        ]
      }
    },
    {
      "type": "Feature",
      "properties": {
        "norad_id": 29772,
        "name": "FENGYUN 1C DEB",
        "group": "fengyun-1c-debris",
        "lat": -69.18045017186496,
        "lon": -134.0943119088985,
        "alt_km": 796.0045338552272,
        "timestamp": "2025-12-20T11:30:28.648394+00:00",
        "meta_object_name": "FENGYUN 1C DEB",
        "meta_object_id": "1999-025BN",
        "meta_epoch": "2025-12-17T20:35:52.099296",
        "meta_mean_motion": 14.03229234,
        "meta_eccentricity": 0.01377936,
        "meta_inclination": 98.3866,
        "meta_ra_of_asc_node": 200.6611,
        "meta_arg_of_pericenter": 276.0163,
        "meta_mean_anomaly": 98.373,
        "meta_ephemeris_type": 0,
        "meta_classification_type": "U",
        "meta_norad_cat_id": 29772,
        "meta_element_set_no": 999,
        "meta_rev_at_epoch": 96327,
        "meta_bstar": 0.00087765197,
        "meta_mean_motion_dot": 1.448e-05,
        "meta_mean_motion_ddot": 0,
        "tle_line1": "1 29772U 99025BN  25351.85824189  .00001448  00000+0  87765-3 0  9995",
        "tle_line2": "2 29772  98.3866 200.6611 0137793 276.0163  98.3730 14.03229234963277"
      },
      "geometry": {
        "type": "Point",
        "coordinates": [
          -134.0943119088985,
          -69.18045017186496
        ]
      }
    },
    {
      "type": "Feature",
      "properties": {
        "norad_id": 29773,
        "name": "FENGYUN 1C DEB",
        "group": "fengyun-1c-debris",
        "lat": -64.42100596231273,
        "lon": 167.607229300135,
        "alt_km": 777.0364441956426,
        "timestamp": "2025-12-20T11:30:28.648404+00:00",
        "meta_object_name": "FENGYUN 1C DEB",
        "meta_object_id": "1999-025BP",
        "meta_epoch": "2025-12-18T16:08:57.085152",
        "meta_mean_motion": 14.27580936,
        "meta_eccentricity": 0.00464058,
        "meta_inclination": 98.9875,
        "meta_ra_of_asc_node": 146.4432,
        "meta_arg_of_pericenter": 273.2603,
        "meta_mean_anomaly": 101.1,
        "meta_ephemeris_type": 0,
        "meta_classification_type": "U",
        "meta_norad_cat_id": 29773,
        "meta_element_set_no": 999,
        "meta_rev_at_epoch": 98282,
        "meta_bstar": 0.00029427504,
        "meta_mean_motion_dot": 6.85e-06,
        "meta_mean_motion_ddot": 0,
        "tle_line1": "1 29773U 99025BP  25352.67288293  .00000685  00000+0  29428-3 0  9991",
        "tle_line2": "2 29773  98.9875 146.4432 0046405 273.2603 101.1000 14.27580936982829"
      },
      "geometry": {
        "type": "Point",
        "coordinates": [
          167.607229300135,
          -64.42100596231273
        ]
      }
    },
    {
      "type": "Feature",
      "properties": {
        "norad_id": 29774,
        "name": "FENGYUN 1C DEB",
        "group": "fengyun-1c-debris",
        "lat": 52.85890837845826,
        "lon": 127.2252610069745,
        "alt_km": 777.5362691060036,
        "timestamp": "2025-12-20T11:30:28.648415+00:00",
        "meta_object_name": "FENGYUN 1C DEB",
        "meta_object_id": "1999-025BQ",
        "meta_epoch": "2025-12-19T15:29:34.936800",
        "meta_mean_motion": 14.22737613,
        "meta_eccentricity": 0.0051291,
        "meta_inclination": 99.0772,
        "meta_ra_of_asc_node": 294.1814,
        "meta_arg_of_pericenter": 103.8235,
        "meta_mean_anomaly": 73.0266,
        "meta_ephemeris_type": 0,
        "meta_classification_type": "U",
        "meta_norad_cat_id": 29774,
        "meta_element_set_no": 999,
        "meta_rev_at_epoch": 98173,
        "meta_bstar": 0.00012675,
        "meta_mean_motion_dot": 2.41e-06,
        "meta_mean_motion_ddot": 0,
        "tle_line1": "1 29774U 99025BQ  25353.64554325  .00000241  00000+0  12675-3 0  9996",
        "tle_line2": "2 29774  99.0772 294.1814 0051291 103.8235  73.0266 14.22737613981732"
      },
      "geometry": {
        "type": "Point",
        "coordinates": [
          127.2252610069745,
          52.85890837845826
        ]
      }
    },
    {
      "type": "Feature",
      "properties": {
        "norad_id": 29776,
        "name": "FENGYUN 1C DEB",
        "group": "fengyun-1c-debris",
        "lat": -42.866435389935184,
        "lon": 29.248065083322953,
        "alt_km": 867.4476129458071,
        "timestamp": "2025-12-20T11:30:28.648425+00:00",
        "meta_object_name": "FENGYUN 1C DEB",
        "meta_object_id": "1999-025BS",
        "meta_epoch": "2025-12-20T01:44:28.992192",
        "meta_mean_motion": 14.07779785,
        "meta_eccentricity": 0.002289,
        "meta_inclination": 98.7704,
        "meta_ra_of_asc_node": 20.6148,
        "meta_arg_of_pericenter": 249.2425,
        "meta_mean_anomaly": 165.8741,
        "meta_ephemeris_type": 0,
        "meta_classification_type": "U",
        "meta_norad_cat_id": 29776,
        "meta_element_set_no": 999,
        "meta_rev_at_epoch": 97183,
        "meta_bstar": 0.00013345,
        "meta_mean_motion_dot": 1.84e-06,
        "meta_mean_motion_ddot": 0,
        "tle_line1": "1 29776U 99025BS  25354.07255778  .00000184  00000+0  13345-3 0  9997",
        "tle_line2": "2 29776  98.7704  20.6148 0022890 249.2425 165.8741 14.07779785971833"
      },
      "geometry": {
        "type": "Point",
        "coordinates": [
          29.248065083322953,
          -42.866435389935184
        ]
      }
    },
    {
      "type": "Feature",
      "properties": {
        "norad_id": 29777,
        "name": "FENGYUN 1C DEB",
        "group": "fengyun-1c-debris",
        "lat": -70.34452064857662,
        "lon": 78.60150248291194,
        "alt_km": 938.0896129900948,
        "timestamp": "2025-12-20T11:30:28.648436+00:00",
        "meta_object_name": "FENGYUN 1C DEB",
        "meta_object_id": "1999-025BT",
        "meta_epoch": "2025-12-20T03:22:03.012096",
        "meta_mean_motion": 13.9210733,
        "meta_eccentricity": 0.0093007,
        "meta_inclination": 99.2824,
        "meta_ra_of_asc_node": 51.0118,
        "meta_arg_of_pericenter": 189.6989,
        "meta_mean_anomaly": 197.7425,
        "meta_ephemeris_type": 0,
        "meta_classification_type": "U",
        "meta_norad_cat_id": 29777,
        "meta_element_set_no": 999,
        "meta_rev_at_epoch": 96144,
        "meta_bstar": 4.4627e-05,
        "meta_mean_motion_dot": 1.4e-07,
        "meta_mean_motion_ddot": 0,
        "tle_line1": "1 29777U 99025BT  25354.14031264  .00000014  00000+0  44627-4 0  9998",
        "tle_line2": "2 29777  99.2824  51.0118 0093007 189.6989 197.7425 13.92107330961441"
      },
      "geometry": {
        "type": "Point",
        "coordinates": [
          78.60150248291194,
          -70.34452064857662
        ]
      }
    },
    {
      "type": "Feature",
      "properties": {
        "norad_id": 29779,
        "name": "FENGYUN 1C DEB",
        "group": "fengyun-1c-debris",
        "lat": 59.210266190194424,
        "lon": -159.6671201268149,
        "alt_km": 799.218159717675,
        "timestamp": "2025-12-20T11:30:28.648446+00:00",
        "meta_object_name": "FENGYUN 1C DEB",
        "meta_object_id": "1999-025BV",
        "meta_epoch": "2025-12-19T19:39:16.009920",
        "meta_mean_motion": 14.1344871,
        "meta_eccentricity": 0.00638146,
        "meta_inclination": 98.6768,
        "meta_ra_of_asc_node": 4.8435,
        "meta_arg_of_pericenter": 144.1255,
        "meta_mean_anomaly": 216.4229,
        "meta_ephemeris_type": 0,
        "meta_classification_type": "U",
        "meta_norad_cat_id": 29779,
        "meta_element_set_no": 999,
        "meta_rev_at_epoch": 97512,
        "meta_bstar": 0.0001833252,
        "meta_mean_motion_dot": 3.09e-06,
        "meta_mean_motion_ddot": 0,
        "tle_line1": "1 29779U 99025BV  25353.81893530  .00000309  00000+0  18333-3 0  9996",
        "tle_line2": "2 29779  98.6768   4.8435 0063814 144.1255 216.4229 14.13448710975121"
      },
      "geometry": {
        "type": "Point",
        "coordinates": [
          -159.6671201268149,
          59.210266190194424
        ]
      }
    }
  ]
}